STARLINK-36639          
1 67669U 26022X   26049.25002315 -.00071140  00000+0 -47998-3 0  9999
2 67669  97.2844  82.3160 0001248 101.2501 200.6732 15.75193741  3764
STARLINK-36596          
1 67670U 26022Y   26049.25002315  .00136917  00000+0  90448-3 0  9991
2 67670  97.2847  82.3212 0001542 111.4368 200.3621 15.75182120  3761
STARLINK-36297          
1 67671U 26022Z   26049.25002315 -.00073694  00000+0 -49703-3 0  9994
2 67671  97.2846  82.3256 0000962  90.9255 232.9918 15.75211485  3767
STARLINK-36616          
1 67672U 26022AA  26049.25002315 -.00012925  00000+0 -85963-4 0  9994
2 67672  97.2858  82.3213 0001298  80.3939 235.5348 15.75177384  3764
COSMOS 2600             
1 67674U 26023A   26049.24539202  .00065320  00000+0  30961-3 0  9998
2 67674  96.6479 125.4951 0001434  55.4401 304.7005 15.82796172  1975
2026-023B               
1 67675U 26023B   26049.26878367  .00010429  00000+0  45054-3 0  9998
2 67675  96.6398 124.4684 0017910 199.3555 160.7005 15.22492853  1908
2026-023C               
1 67676U 26023C   26049.26829610  .00011780  00000+0  50707-3 0  9998
2 67676  96.6433 124.4829 0019139 189.0981 170.9913 15.22567641  2061
2026-023D               
1 67677U 26023D   26049.26925760  .00010536  00000+0  45572-3 0  9994
2 67677  96.6463 124.4673 0019264 194.3692 165.7002 15.22427795  1895
2026-023E               
1 67678U 26023E   26049.26852593  .00012695  00000+0  54660-3 0  9994
2 67678  96.6357 124.4667 0019087 193.6760 166.3964 15.22543705  1896
2026-023F               
1 67679U 26023F   26049.26738703  .00014805  00000+0  63358-3 0  9990
2 67679  96.6365 126.9640 0021024 188.4661 171.6226 15.22682830  1882
2026-023G               
1 67680U 26023G   26049.26768454  .00011844  00000+0  50767-3 0  9998
2 67680  96.6292 126.9602 0022635 184.9470 175.1549 15.22641770  1884
2026-023H               
1 67681U 26023H   26049.07033744  .00000018  00000+0  32619-5 0  9994
2 67681  96.6435 126.7896 0022587 185.3318 174.7684 15.22627375  1856
