CCSDS_OMM_VERS = 2.0
CREATION_DATE  = 
ORIGINATOR     = 

OBJECT_NAME    = STARLINK-36639
OBJECT_ID      = 2026-022X
CENTER_NAME    = EARTH
REF_FRAME      = TEME
TIME_SYSTEM    = UTC
MEAN_ELEMENT_THEORY = SGP/SGP4

EPOCH          = 2026-02-18T06:00:02.000160
MEAN_MOTION    = 15.75193741
ECCENTRICITY   = .00012488
INCLINATION    = 97.2844
RA_OF_ASC_NODE = 82.3160
ARG_OF_PERICENTER = 101.2501
MEAN_ANOMALY   = 200.6732

EPHEMERIS_TYPE = 0
CLASSIFICATION_TYPE = U
NORAD_CAT_ID   = 67669
ELEMENT_SET_NO = 999
REV_AT_EPOCH   = 376
BSTAR          = -.4799848E-3
MEAN_MOTION_DOT = -.7114E-3
MEAN_MOTION_DDOT = 0

CCSDS_OMM_VERS = 2.0
CREATION_DATE  = 
ORIGINATOR     = 

OBJECT_NAME    = STARLINK-36596
OBJECT_ID      = 2026-022Y
CENTER_NAME    = EARTH
REF_FRAME      = TEME
TIME_SYSTEM    = UTC
MEAN_ELEMENT_THEORY = SGP/SGP4

EPOCH          = 2026-02-18T06:00:02.000160
MEAN_MOTION    = 15.75182120
ECCENTRICITY   = .00015426
INCLINATION    = 97.2847
RA_OF_ASC_NODE = 82.3212
ARG_OF_PERICENTER = 111.4368
MEAN_ANOMALY   = 200.3621

EPHEMERIS_TYPE = 0
CLASSIFICATION_TYPE = U
NORAD_CAT_ID   = 67670
ELEMENT_SET_NO = 999
REV_AT_EPOCH   = 376
BSTAR          = .90448219E-3
MEAN_MOTION_DOT = .136917E-2
MEAN_MOTION_DDOT = 0

CCSDS_OMM_VERS = 2.0
CREATION_DATE  = 
ORIGINATOR     = 

OBJECT_NAME    = STARLINK-36297
OBJECT_ID      = 2026-022Z
CENTER_NAME    = EARTH
REF_FRAME      = TEME
TIME_SYSTEM    = UTC
MEAN_ELEMENT_THEORY = SGP/SGP4

EPOCH          = 2026-02-18T06:00:02.000160
MEAN_MOTION    = 15.75211485
ECCENTRICITY   = .00009626
INCLINATION    = 97.2846
RA_OF_ASC_NODE = 82.3256
ARG_OF_PERICENTER = 90.9255
MEAN_ANOMALY   = 232.9918

EPHEMERIS_TYPE = 0
CLASSIFICATION_TYPE = U
NORAD_CAT_ID   = 67671
ELEMENT_SET_NO = 999
REV_AT_EPOCH   = 376
BSTAR          = -.49702851E-3
MEAN_MOTION_DOT = -.73694E-3
MEAN_MOTION_DDOT = 0

CCSDS_OMM_VERS = 2.0
CREATION_DATE  = 
ORIGINATOR     = 

OBJECT_NAME    = STARLINK-36616
OBJECT_ID      = 2026-022AA
CENTER_NAME    = EARTH
REF_FRAME      = TEME
TIME_SYSTEM    = UTC
MEAN_ELEMENT_THEORY = SGP/SGP4

EPOCH          = 2026-02-18T06:00:02.000160
MEAN_MOTION    = 15.75177384
ECCENTRICITY   = .00012984
INCLINATION    = 97.2858
RA_OF_ASC_NODE = 82.3213
ARG_OF_PERICENTER = 80.3939
MEAN_ANOMALY   = 235.5348

EPHEMERIS_TYPE = 0
CLASSIFICATION_TYPE = U
NORAD_CAT_ID   = 67672
ELEMENT_SET_NO = 999
REV_AT_EPOCH   = 376
BSTAR          = -.85963011E-4
MEAN_MOTION_DOT = -.12925E-3
MEAN_MOTION_DDOT = 0

CCSDS_OMM_VERS = 2.0
CREATION_DATE  = 
ORIGINATOR     = 

OBJECT_NAME    = COSMOS 2600
OBJECT_ID      = 2026-023A
CENTER_NAME    = EARTH
REF_FRAME      = TEME
TIME_SYSTEM    = UTC
MEAN_ELEMENT_THEORY = SGP/SGP4

EPOCH          = 2026-02-18T05:53:21.870528
MEAN_MOTION    = 15.82796172
ECCENTRICITY   = .00014347
INCLINATION    = 96.6479
RA_OF_ASC_NODE = 125.4951
ARG_OF_PERICENTER = 55.4401
MEAN_ANOMALY   = 304.7005

EPHEMERIS_TYPE = 0
CLASSIFICATION_TYPE = U
NORAD_CAT_ID   = 67674
ELEMENT_SET_NO = 999
REV_AT_EPOCH   = 197
BSTAR          = .30961249E-3
MEAN_MOTION_DOT = .6532E-3
MEAN_MOTION_DDOT = 0

CCSDS_OMM_VERS = 2.0
CREATION_DATE  = 
ORIGINATOR     = 

OBJECT_NAME    = 2026-023B
OBJECT_ID      = 2026-023B
CENTER_NAME    = EARTH
REF_FRAME      = TEME
TIME_SYSTEM    = UTC
MEAN_ELEMENT_THEORY = SGP/SGP4

EPOCH          = 2026-02-18T06:27:02.909088
MEAN_MOTION    = 15.22492853
ECCENTRICITY   = .00179104
INCLINATION    = 96.6398
RA_OF_ASC_NODE = 124.4684
ARG_OF_PERICENTER = 199.3555
MEAN_ANOMALY   = 160.7005

EPHEMERIS_TYPE = 0
CLASSIFICATION_TYPE = U
NORAD_CAT_ID   = 67675
ELEMENT_SET_NO = 999
REV_AT_EPOCH   = 190
BSTAR          = .45053886E-3
MEAN_MOTION_DOT = .10429E-3
MEAN_MOTION_DDOT = 0

CCSDS_OMM_VERS = 2.0
CREATION_DATE  = 
ORIGINATOR     = 

OBJECT_NAME    = 2026-023C
OBJECT_ID      = 2026-023C
CENTER_NAME    = EARTH
REF_FRAME      = TEME
TIME_SYSTEM    = UTC
MEAN_ELEMENT_THEORY = SGP/SGP4

EPOCH          = 2026-02-18T06:26:20.783040
MEAN_MOTION    = 15.22567641
ECCENTRICITY   = .0019139
INCLINATION    = 96.6433
RA_OF_ASC_NODE = 124.4829
ARG_OF_PERICENTER = 189.0981
MEAN_ANOMALY   = 170.9913

EPHEMERIS_TYPE = 0
CLASSIFICATION_TYPE = U
NORAD_CAT_ID   = 67676
ELEMENT_SET_NO = 999
REV_AT_EPOCH   = 206
BSTAR          = .50707008E-3
MEAN_MOTION_DOT = .1178E-3
MEAN_MOTION_DDOT = 0

CCSDS_OMM_VERS = 2.0
CREATION_DATE  = 
ORIGINATOR     = 

OBJECT_NAME    = 2026-023D
OBJECT_ID      = 2026-023D
CENTER_NAME    = EARTH
REF_FRAME      = TEME
TIME_SYSTEM    = UTC
MEAN_ELEMENT_THEORY = SGP/SGP4

EPOCH          = 2026-02-18T06:27:43.856640
MEAN_MOTION    = 15.22427795
ECCENTRICITY   = .00192641
INCLINATION    = 96.6463
RA_OF_ASC_NODE = 124.4673
ARG_OF_PERICENTER = 194.3692
MEAN_ANOMALY   = 165.7002

EPHEMERIS_TYPE = 0
CLASSIFICATION_TYPE = U
NORAD_CAT_ID   = 67677
ELEMENT_SET_NO = 999
REV_AT_EPOCH   = 189
BSTAR          = .45571562E-3
MEAN_MOTION_DOT = .10536E-3
MEAN_MOTION_DDOT = 0

CCSDS_OMM_VERS = 2.0
CREATION_DATE  = 
ORIGINATOR     = 

OBJECT_NAME    = 2026-023E
OBJECT_ID      = 2026-023E
CENTER_NAME    = EARTH
REF_FRAME      = TEME
TIME_SYSTEM    = UTC
MEAN_ELEMENT_THEORY = SGP/SGP4

EPOCH          = 2026-02-18T06:26:40.640352
MEAN_MOTION    = 15.22543705
ECCENTRICITY   = .00190879
INCLINATION    = 96.6357
RA_OF_ASC_NODE = 124.4667
ARG_OF_PERICENTER = 193.6760
MEAN_ANOMALY   = 166.3964

EPHEMERIS_TYPE = 0
CLASSIFICATION_TYPE = U
NORAD_CAT_ID   = 67678
ELEMENT_SET_NO = 999
REV_AT_EPOCH   = 189
BSTAR          = .54660181E-3
MEAN_MOTION_DOT = .12695E-3
MEAN_MOTION_DDOT = 0

CCSDS_OMM_VERS = 2.0
CREATION_DATE  = 
ORIGINATOR     = 

OBJECT_NAME    = 2026-023F
OBJECT_ID      = 2026-023F
CENTER_NAME    = EARTH
REF_FRAME      = TEME
TIME_SYSTEM    = UTC
MEAN_ELEMENT_THEORY = SGP/SGP4

EPOCH          = 2026-02-18T06:25:02.239392
MEAN_MOTION    = 15.22682830
ECCENTRICITY   = .00210244
INCLINATION    = 96.6365
RA_OF_ASC_NODE = 126.9640
ARG_OF_PERICENTER = 188.4661
MEAN_ANOMALY   = 171.6226

EPHEMERIS_TYPE = 0
CLASSIFICATION_TYPE = U
NORAD_CAT_ID   = 67679
ELEMENT_SET_NO = 999
REV_AT_EPOCH   = 188
BSTAR          = .63358007E-3
MEAN_MOTION_DOT = .14805E-3
MEAN_MOTION_DDOT = 0

CCSDS_OMM_VERS = 2.0
CREATION_DATE  = 
ORIGINATOR     = 

OBJECT_NAME    = 2026-023G
OBJECT_ID      = 2026-023G
CENTER_NAME    = EARTH
REF_FRAME      = TEME
TIME_SYSTEM    = UTC
MEAN_ELEMENT_THEORY = SGP/SGP4

EPOCH          = 2026-02-18T06:25:27.944256
MEAN_MOTION    = 15.22641770
ECCENTRICITY   = .00226353
INCLINATION    = 96.6292
RA_OF_ASC_NODE = 126.9602
ARG_OF_PERICENTER = 184.9470
MEAN_ANOMALY   = 175.1549

EPHEMERIS_TYPE = 0
CLASSIFICATION_TYPE = U
NORAD_CAT_ID   = 67680
ELEMENT_SET_NO = 999
REV_AT_EPOCH   = 188
BSTAR          = .50767151E-3
MEAN_MOTION_DOT = .11844E-3
MEAN_MOTION_DDOT = 0

CCSDS_OMM_VERS = 2.0
CREATION_DATE  = 
ORIGINATOR     = 

OBJECT_NAME    = 2026-023H
OBJECT_ID      = 2026-023H
CENTER_NAME    = EARTH
REF_FRAME      = TEME
TIME_SYSTEM    = UTC
MEAN_ELEMENT_THEORY = SGP/SGP4

EPOCH          = 2026-02-18T01:41:17.154816
MEAN_MOTION    = 15.22627375
ECCENTRICITY   = .00225878
INCLINATION    = 96.6435
RA_OF_ASC_NODE = 126.7896
ARG_OF_PERICENTER = 185.3318
MEAN_ANOMALY   = 174.7684

EPHEMERIS_TYPE = 0
CLASSIFICATION_TYPE = U
NORAD_CAT_ID   = 67681
ELEMENT_SET_NO = 999
REV_AT_EPOCH   = 185
BSTAR          = .3261934E-5
MEAN_MOTION_DOT = .18E-6
MEAN_MOTION_DDOT = 0

